OBJECT C                
1 57582U 23117C   25281.30705058  .00024155  00000+0  86891-3 0  9998
2 57582  97.4351 355.8566 0009232  60.7309 299.4853 15.28567629119931
